{
    "links": {
        "self": "http://www.neowsapp.com/rest/v1/neo/3773983?api_key=iIulBulltgU6a56xZRHN4H3l9WmuAYTsLGpBGhQ2"
    },
    "id": "3773983",
    "neo_reference_id": "3773983",
    "name": "(2017 GA8)",
    "designation": "2017 GA8",
    "nasa_jpl_url": "http://ssd.jpl.nasa.gov/sbdb.cgi?sstr=3773983",
    "absolute_magnitude_h": 24.3,
    "estimated_diameter": {
        "kilometers": {
            "estimated_diameter_min": 0.0366906138,
            "estimated_diameter_max": 0.0820427065
        },
        "meters": {
            "estimated_diameter_min": 36.6906137531,
            "estimated_diameter_max": 82.0427064882
        },
        "miles": {
            "estimated_diameter_min": 0.0227984834,
            "estimated_diameter_max": 0.0509789586
        },
        "feet": {
            "estimated_diameter_min": 120.3760332259,
            "estimated_diameter_max": 269.1689931548
        }
    },
    "is_potentially_hazardous_asteroid": false,
    "close_approach_data": [
        {
            "close_approach_date": "2015-10-05",
            "close_approach_date_full": "2015-Oct-05 15:58",
            "epoch_date_close_approach": 1444060680000,
            "relative_velocity": {
                "kilometers_per_second": "19.5618357111",
                "kilometers_per_hour": "70422.6085599035",
                "miles_per_hour": "43757.8703021245"
            },
            "miss_distance": {
                "astronomical": "0.1476464239",
                "lunar": "57.4344588971",
                "kilometers": "22087590.528557093",
                "miles": "13724592.3366421634"
            },
            "orbiting_body": "Earth"
        },
        {
            "close_approach_date": "2017-04-08",
            "close_approach_date_full": "2017-Apr-08 23:56",
            "epoch_date_close_approach": 1491695760000,
            "relative_velocity": {
                "kilometers_per_second": "16.1182596651",
                "kilometers_per_hour": "58025.7347943949",
                "miles_per_hour": "36054.9350448839"
            },
            "miss_distance": {
                "astronomical": "0.0649340962",
                "lunar": "25.2593634218",
                "kilometers": "9714002.481895094",
                "miles": "6036001.2491525372"
            },
            "orbiting_body": "Earth"
        }
    ],
    "orbital_data": {
        "orbit_id": "1",
        "orbit_determination_date": "2017-04-18 12:42:04",
        "first_observation_date": "2017-04-15",
        "last_observation_date": "2017-04-18",
        "data_arc_in_days": 3,
        "observations_used": 29,
        "orbit_uncertainty": "8",
        "minimum_orbit_intersection": ".0573351",
        "jupiter_tisserand_invariant": "5.496",
        "epoch_osculation": "2457860.5",
        "eccentricity": ".3196289911865006",
        "semi_major_axis": "1.101200314775719",
        "inclination": "27.8181772296333",
        "ascending_node_longitude": "203.193968550109",
        "orbital_period": "422.0830549049393",
        "perihelion_distance": ".7492247690696993",
        "perihelion_argument": "255.762050376657",
        "aphelion_distance": "1.45317586048174",
        "perihelion_time": "2457777.098514724811",
        "mean_anomaly": "71.13418638857726",
        "mean_motion": ".8529127047781592",
        "equinox": "J2000",
        "orbit_class": {
            "orbit_class_type": "APO",
            "orbit_class_description": "Near-Earth asteroid orbits which cross the Earth’s orbit similar to that of 1862 Apollo",
            "orbit_class_range": "a (semi-major axis) > 1.0 AU; q (perihelion) < 1.017 AU"
        }
    },
    "is_sentry_object": false
}